NORAD_CAT_ID,OBJECT_NAME,OBJECT_TYPE,EPOCH,MEAN_MOTION,ECCENTRICITY,INCLINATION,RA_OF_ASC_NODE,ARG_OF_PERICENTER,MEAN_ANOMALY,BSTAR,MEAN_MOTION_DOT,MEAN_MOTION_DDOT,TLE_LINE0,TLE_LINE1,TLE_LINE2,SEMIMAJOR_AXIS,PERIOD,APOGEE,PERIGEE,DECAYED
52137.0,STARLINK-3733,PAYLOAD,2022-03-22 18:00:02,15.84414239,8.89e-05,53.2173,126.6914,323.973,205.2111,-0.0042116,-0.00888206,0.0,0 STARLINK-3733,1 52137U 22029BB  22081.75002315 -.00888206  00000-0 -42116-2 0  9999,2 52137  53.2173 126.6914 0000889 323.9730 205.2111 15.84414239  1815,6696.111999999999,90.885,318.572,317.381,0.0
52137.0,STARLINK-3733,PAYLOAD,2022-03-23 12:00:00,15.82991307,0.000117,53.2174,122.9231,62.9763,64.6045,-0.0044368,-0.0087545,0.0,0 STARLINK-3733,1 52137U 22029BB  22082.50001157 -.00875450  00000-0 -44368-2 0  9994,2 52137  53.2174 122.9231 0001170  62.9763  64.6045 15.82991307  1926,6700.124,90.967,322.773,321.205,0.0
52137.0,STARLINK-3733,PAYLOAD,2022-03-23 14:00:01,15.82832656,0.0001132,53.2172,122.5047,70.604,172.1255,-0.004456,-0.00872885,0.0,0 STARLINK-3733,1 52137U 22029BB  22082.58334491 -.00872885  00000-0 -44560-2 0  9995,2 52137  53.2172 122.5047 0001132  70.6040 172.1255 15.82832656  1465,6700.571,90.976,323.195,321.678,0.0
52137.0,STARLINK-3733,PAYLOAD,2022-03-23 22:00:00,15.82205095,0.0001063,53.2174,120.8302,53.8692,288.9818,-0.0046101,-0.0087627,0.0,0 STARLINK-3733,1 52137U 22029BB  22082.91667824 -.00876270  00000-0 -46101-2 0  9996,2 52137  53.2174 120.8302 0001063  53.8692 288.9818 15.82205095  1519,6702.343000000003,91.012,324.921,323.496,0.0
52137.0,STARLINK-3733,PAYLOAD,2022-03-24 04:00:00,15.81735713,0.0001118,53.2177,119.577,60.4586,266.9853,-0.0047324,-0.00879543,0.0,0 STARLINK-3733,1 52137U 22029BB  22083.16667824 -.00879543  00000-0 -47324-2 0  9998,2 52137  53.2177 119.5770 0001118  60.4586 266.9853 15.81735713  2030,6703.669,91.039,326.283,324.785,0.0
52137.0,STARLINK-3733,PAYLOAD,2022-03-24 14:00:01,15.80944914,0.000123,53.2172,117.4919,60.2771,120.5457,-0.0048668,-0.0087246,0.0,0 STARLINK-3733,1 52137U 22029BB  22083.58334491 -.00872460  00000-0 -48668-2 0  9998,2 52137  53.2172 117.4919 0001230  60.2771 120.5457 15.80944914  1629,6705.904,91.085,328.594,326.944,0.0
52137.0,STARLINK-3733,PAYLOAD,2022-03-24 22:00:00,15.80317027,0.0001182,53.2174,115.8221,54.6762,223.9995,-0.0050268,-0.00874975,0.0,0 STARLINK-3733,1 52137U 22029BB  22083.91667824 -.00874975  00000-0 -50268-2 0  9996,2 52137  53.2174 115.8221 0001182  54.6762 223.9995 15.80317027  2155,6707.68,91.121,330.338,328.7530000000001,0.0
52137.0,STARLINK-3733,PAYLOAD,2022-03-25 14:00:01,15.79058901,0.0001167,53.2171,112.4932,55.9412,56.1682,-0.0053257,-0.00874891,0.0,0 STARLINK-3733,1 52137U 22029BB  22084.58334491 -.00874891  00000-0 -53257-2 0  9999,2 52137  53.2171 112.4932 0001167  55.9412  56.1682 15.79058901  1781,6711.243,91.194,333.891,332.325,0.0
52137.0,STARLINK-3733,PAYLOAD,2022-03-25 20:00:01,15.78586465,0.0001234,53.2175,111.2441,47.4295,46.4396,-0.0054362,-0.00874116,0.0,0 STARLINK-3733,1 52137U 22029BB  22084.83334491 -.00874116  00000-0 -54362-2 0  9995,2 52137  53.2175 111.2441 0001234  47.4295  46.4396 15.78586465  2298,6712.581999999999,91.221,335.275,333.61800000000005,0.0
52137.0,STARLINK-3733,PAYLOAD,2022-03-25 22:00:01,15.78428744,0.0001284,53.2174,110.8278,56.0574,151.7028,-0.0054693,-0.00873264,0.0,0 STARLINK-3733,1 52137U 22029BB  22084.91668981 -.00873264  00000-0 -54693-2 0  9998,2 52137  53.2174 110.8278 0001284  56.0574 151.7028 15.78428744  1837,6713.029,91.23,335.756,334.032,0.0
52137.0,STARLINK-3733,PAYLOAD,2022-03-26 12:00:00,15.77326639,0.0001281999999999,53.2176,107.9235,53.0131,230.1315,-0.0057388,-0.00871928,0.0,0 STARLINK-3733,1 52137U 22029BB  22085.50001157 -.00871928  00000-0 -57388-2 0  9999,2 52137  53.2176 107.9235 0001282  53.0131 230.1315 15.77326639  2407,6716.156,91.294,338.88199999999995,337.16,0.0
52137.0,STARLINK-3733,PAYLOAD,2022-03-26 14:00:01,15.77172087,0.0001087,53.2171,107.5083,55.3112,341.2793,-0.0058058,-0.00875555,0.0,0 STARLINK-3733,1 52137U 22029BB  22085.58334491 -.00875555  00000-0 -58058-2 0  9992,2 52137  53.2171 107.5083 0001087  55.3112 341.2793 15.77172087  1944,6716.594,91.303,339.189,337.7290000000001,0.0
52137.0,STARLINK-3733,PAYLOAD,2022-03-26 22:00:00,15.76541265,0.0001299,53.2172,105.8478,48.9219,80.9853,-0.0059571999999999,-0.00873665,0.0,0 STARLINK-3733,1 52137U 22029BB  22085.91667824 -.00873665  00000-0 -59572-2 0  9990,2 52137  53.2172 105.8478 0001299  48.9219  80.9853 15.76541265  1991,6718.386,91.339,341.124,339.3780000000001,0.0
52137.0,STARLINK-3733,PAYLOAD,2022-03-27 04:00:00,15.76070254,0.0001448,53.2174,104.6058,41.7815,67.6148,-0.0060938999999999,-0.00875081,0.0,0 STARLINK-3733,1 52137U 22029BB  22086.16667824 -.00875081  00000-0 -60939-2 0  9991,2 52137  53.2174 104.6058 0001448  41.7815  67.6148 15.76070254  2505,6719.724,91.366,342.5619999999999,340.616,0.0
52137.0,STARLINK-3733,PAYLOAD,2022-03-27 14:00:01,15.75284304,0.0001041,53.2172,102.5374,70.0447,244.2213,-0.006309,-0.00874893,0.0,0 STARLINK-3733,1 52137U 22029BB  22086.58334491 -.00874893  00000-0 -63090-2 0  9999,2 52137  53.2172 102.5374 0001041  70.0447 244.2213 15.75284304  2100,6721.959,91.412,344.524,343.125,0.0
52137.0,STARLINK-3733,PAYLOAD,2022-03-27 22:00:01,15.74653138,0.0001217,53.2174,100.8815,44.5212,0.8589,-0.0064744,-0.00873484,0.0,0 STARLINK-3733,1 52137U 22029BB  22086.91668981 -.00873484  00000-0 -64744-2 0  9992,2 52137  53.2174 100.8815 0001217  44.5212   0.8589 15.74653138  2155,6723.755,91.449,346.439,344.802,0.0
52137.0,STARLINK-3733,PAYLOAD,2022-03-28 04:00:00,15.741850199999998,0.0001337,53.2178,99.6432,39.5524,343.5485,-0.006662,-0.00879938,0.0,0 STARLINK-3733,1 52137U 22029BB  22087.16667824 -.00879938  00000-0 -66620-2 0  9990,2 52137  53.2178  99.6432 0001337  39.5524 343.5485 15.74185020  2660,6725.0880000000025,91.476,347.852,346.05400000000014,0.0
52137.0,STARLINK-3733,PAYLOAD,2022-03-28 14:00:01,15.73245123,0.0001276,53.2171,97.5801,58.04600000000001,167.1725,-0.00047946,-0.000675,0.0,0 STARLINK-3733,1 52137U 22029BB  22087.58335648 -.00067500  00000-0 -47946-3 0  9997,2 52137  53.2171  97.5801 0001276  58.0460 167.1725 15.73245123  2732,6727.767,91.531,350.49,348.773,0.0
52137.0,STARLINK-3733,PAYLOAD,2022-03-28 22:00:00,15.73205155,0.0001262,53.2173,95.9288,50.288,263.8185,-8.053200000000001e-06,-1.75e-05,0.0,0 STARLINK-3733,1 52137U 22029BB  22087.91667824 -.00001750  00000-0 -80532-5 0  9993,2 52137  53.2173  95.9288 0001262  50.2880 263.8185 15.73205155  2319,6727.88,91.533,350.595,348.896,0.0
52137.0,STARLINK-3733,PAYLOAD,2022-03-29 04:00:00,15.73241012,7.97e-05,53.2162,94.6931,26.5132,264.3265,0.00022554,0.00031206,0.0,0 STARLINK-3733,1 52137U 22029BB  22088.16667824  .00031206  00000-0  22554-3 0  9996,2 52137  53.2162  94.6931 0000797  26.5132 264.3265 15.73241012  2829,6727.778,91.531,350.17900000000014,349.107,0.0
52137.0,STARLINK-3733,PAYLOAD,2022-03-29 14:00:01,15.73300701,0.0001121,53.216,92.6315,32.9126,99.1633,-0.00093493,-0.00130375,0.0,0 STARLINK-3733,1 52137U 22029BB  22088.58334491 -.00130375  00000-0 -93493-3 0  9992,2 52137  53.2160  92.6315 0001121  32.9126  99.1633 15.73300701  2416,6727.608,91.527,350.227,348.719,0.0
52137.0,STARLINK-3733,PAYLOAD,2022-03-29 20:00:01,15.73184799,0.0001085999999999,53.2163,91.3926,50.1258,58.7186,0.00035479,0.00049433,0.0,0 STARLINK-3733,1 52137U 22029BB  22088.83334491  .00049433  00000-0  35479-3 0  9992,2 52137  53.2163  91.3926 0001086  50.1258  58.7186 15.73184799  2928,6727.939,91.534,350.534,349.0730000000001,0.0
52137.0,STARLINK-3733,PAYLOAD,2022-03-29 22:00:00,15.73195956,0.000115,53.2162,90.9798,54.4663,166.6085,0.00022545,0.00031132,0.0,0 STARLINK-3733,1 52137U 22029BB  22088.91667824  .00031132  00000-0  22545-3 0  9997,2 52137  53.2162  90.9798 0001150  54.4663 166.6085 15.73195956  2472,6727.906999999997,91.533,350.545,348.99800000000016,0.0
52137.0,STARLINK-3733,PAYLOAD,2022-03-30 12:00:00,15.73211127,0.0001398,53.216,88.0953,49.5381,237.1807,-7.6956e-05,-0.00011411,0.0,0 STARLINK-3733,1 52137U 22029BB  22089.50001157 -.00011411  00000-0 -76956-4 0  9990,2 52137  53.2160  88.0953 0001398  49.5381 237.1807 15.73211127  3035,6727.863,91.533,350.6690000000001,348.788,0.0
52137.0,STARLINK-3733,PAYLOAD,2022-03-30 14:00:01,15.73206522,0.0001346,53.2158,87.6822,51.2127,347.8084,-3.827e-05,-5.989e-05,0.0,0 STARLINK-3733,1 52137U 22029BB  22089.58335648 -.00005989  00000-0 -38270-4 0  9993,2 52137  53.2158  87.6822 0001346  51.2127 347.8084 15.73206522  2570,6727.877,91.533,350.647,348.836,0.0
52137.0,STARLINK-3733,PAYLOAD,2022-03-30 22:00:00,15.73207479,0.0001261,53.2159,86.0311,62.9912,64.8716,-6.2777e-05,-9.423e-05,0.0,0 STARLINK-3733,1 52137U 22029BB  22089.91667824 -.00009423  00000-0 -62777-4 0  9990,2 52137  53.2159  86.0311 0001261  62.9912  64.8716 15.73207479  2631,6727.874,91.533,350.587,348.89,0.0
52137.0,STARLINK-3733,PAYLOAD,2022-03-31 12:00:00,15.73203627,0.000134,53.2159,83.1465,53.8285,139.6952,6.687199999999999e-05,8.776e-05,0.0,0 STARLINK-3733,1 52137U 22029BB  22090.50001157  .00008776  00000-0  66872-4 0  9996,2 52137  53.2159  83.1465 0001340  53.8285 139.6952 15.73203627  3195,6727.885,91.533,350.651,348.848,0.0
52137.0,STARLINK-3733,PAYLOAD,2022-03-31 14:00:01,15.73200427,0.0001299,53.2161,82.7334,55.9953,249.7641,0.00013234,0.00017993,0.0,0 STARLINK-3733,1 52137U 22029BB  22090.58334491  .00017993  00000-0  13234-3 0  9998,2 52137  53.2161  82.7334 0001299  55.9953 249.7641 15.73200427  2738,6727.894,91.533,350.6330000000001,348.885,0.0
52137.0,STARLINK-3733,PAYLOAD,2022-03-31 20:00:01,15.73206246,0.0001177,53.2164,81.4947,63.3629,219.1117,0.00064399,0.00090765,0.0,0 STARLINK-3733,1 52137U 22029BB  22090.83334491  .00090765  00000-0  64399-3 0  9992,2 52137  53.2164  81.4947 0001177  63.3629 219.1117 15.73206246  3246,6727.877,91.533,350.534,348.95,0.0
